{"fetched_at":"2026-03-29T16:36:15Z","count":15609,"tles":[{"name":"STARLINK-35497","line1":"1 66241U 25245H   26087.71952659  .00007047  00000+0  24974-3 0  9990","line2":"2 66241  53.1579 195.2506 0001410 116.1464 243.9682 15.30209220 24125","category":"Starlink"}]}