{
  "norad_id": 66241,
  "name": "STARLINK-35497",
  "history": [
    {
      "epoch": "2026-03-28T17:16:07.097376",
      "apogee_km": 476.154133192631,
      "perigee_km": 474.2209474063029,
      "latitude_deg": 51.605935794917364,
      "longitude_deg": 153.17455264017917,
      "semi_major_axis_km": 6853.324540299467,
      "eccentricity": 0.00014104,
      "inclination_deg": 53.1579,
      "raan_deg": 195.2506,
      "arg_perigee_deg": 116.1464,
      "mean_anomaly_deg": 243.9682,
      "mean_motion_rev_day": 15.3020922
    }
  ]
}